{"type": "FeatureCollection", "features": [ {"type": "Feature", "properties": {"norad_id": 31212, "name": "FENGYUN 1C DEB", "group": "fengyun-1c-debris", "lat": -23.44718517953284, "lon": 15.637815011244163, "alt_km": 899.4086165800536, "timestamp": "2025-12-06T07:31:40.517933+00:00", "meta": {"OBJECT_NAME": "FENGYUN 1C DEB", "OBJECT_ID": "1999-025BKS", "EPOCH": "2025-11-25T01:25:48.692640", "MEAN_MOTION": 14.12981607, "ECCENTRICITY": 0.00745379, "INCLINATION": 99.223, "RA_OF_ASC_NODE": 0.0078, "ARG_OF_PERICENTER": 220.8092, "MEAN_ANOMALY": 138.7482, "EPHEMERIS_TYPE": 0, "CLASSIFICATION_TYPE": "U", "NORAD_CAT_ID": 31212, "ELEMENT_SET_NO": 999, "REV_AT_EPOCH": 95409, "BSTAR": 0.0015990818, "MEAN_MOTION_DOT": 3.014e-05, "MEAN_MOTION_DDOT": 0}, "tle": {"line1": "1 31212U 99025BKS 25329.05959135  .00003014  00000+0  15991-2 0  9996", "line2": "2 31212  99.2230   0.0078 0074537 220.8092 138.7482 14.12981607954099"}}, "geometry": {"type": "Point", "coordinates": [15.637815011244163, -23.44718517953284]}}, {"type": "Feature", "properties": {"norad_id": 31215, "name": "FENGYUN 1C DEB", "group": "fengyun-1c-debris", "lat": -19.221135602583924, "lon": 0.8755468607896132, "alt_km": 824.4666889183245, "timestamp": "2025-12-06T07:31:40.517943+00:00", "meta": {"OBJECT_NAME": "FENGYUN 1C DEB", "OBJECT_ID": "1999-025BKV", "EPOCH": "2025-12-01T19:24:11.403648", "MEAN_MOTION": 14.33696459, "ECCENTRICITY": 0.00702274, "INCLINATION": 99.0744, "RA_OF_ASC_NODE": 179.3473, "ARG_OF_PERICENTER": 355.6358, "MEAN_ANOMALY": 4.4204, "EPHEMERIS_TYPE": 0, "CLASSIFICATION_TYPE": "U", "NORAD_CAT_ID": 31215, "ELEMENT_SET_NO": 999, "REV_AT_EPOCH": 96369, "BSTAR": 0.00097709666, "MEAN_MOTION_DOT": 2.74e-05, "MEAN_MOTION_DDOT": 0}, "tle": {"line1": "1 31215U 99025BKV 25335.80846532  .00002740  00000+0  97710-3 0  9990", "line2": "2 31215  99.0744 179.3473 0070227 355.6358   4.4204 14.33696459963691"}}, "geometry": {"type": "Point", "coordinates": [0.8755468607896132, -19.221135602583924]}}, {"type": "Feature", "properties": {"norad_id": 31217, "name": "FENGYUN 1C DEB", "group": "fengyun-1c-debris", "lat": 8.942638829789596, "lon": -12.994048503278153, "alt_km": 905.775319841101, "timestamp": "2025-12-06T07:31:40.517954+00:00", "meta": {"OBJECT_NAME": "FENGYUN 1C DEB", "OBJECT_ID": "1999-025BKX", "EPOCH": "2025-12-05T06:04:23.974464", "MEAN_MOTION": 14.17510869, "ECCENTRICITY": 0.00992473, "INCLINATION": 98.6408, "RA_OF_ASC_NODE": 347.3456, "ARG_OF_PERICENTER": 181.5535, "MEAN_ANOMALY": 178.5346, "EPHEMERIS_TYPE": 0, "CLASSIFICATION_TYPE": "U", "NORAD_CAT_ID": 31217, "ELEMENT_SET_NO": 999, "REV_AT_EPOCH": 96242, "BSTAR": 0.00092557024, "MEAN_MOTION_DOT": 1.929e-05, "MEAN_MOTION_DDOT": 0}, "tle": {"line1": "1 31217U 99025BKX 25339.25305526  .00001929  00000+0  92557-3 0  9990", "line2": "2 31217  98.6408 347.3456 0099247 181.5535 178.5346 14.17510869962421"}}, "geometry": {"type": "Point", "coordinates": [-12.994048503278153, 8.942638829789596]}}, {"type": "Feature", "properties": {"norad_id": 31218, "name": "FENGYUN 1C DEB", "group": "fengyun-1c-debris", "lat": 78.84938671636652, "lon": 37.76711009616592, "alt_km": 639.9027147900824, "timestamp": "2025-12-06T07:31:40.517964+00:00", "meta": {"OBJECT_NAME": "FENGYUN 1C DEB", "OBJECT_ID": "1999-025BKY", "EPOCH": "2025-12-04T12:44:00.040128", "MEAN_MOTION": 14.71780481, "ECCENTRICITY": 0.0011488, "INCLINATION": 98.8431, "RA_OF_ASC_NODE": 87.9996, "ARG_OF_PERICENTER": 63.3018, "MEAN_ANOMALY": 296.9361, "EPHEMERIS_TYPE": 0, "CLASSIFICATION_TYPE": "U", "NORAD_CAT_ID": 31218, "ELEMENT_SET_NO": 999, "REV_AT_EPOCH": 96962, "BSTAR": 0.011647, "MEAN_MOTION_DOT": 0.00073542, "MEAN_MOTION_DDOT": 0}, "tle": {"line1": "1 31218U 99025BKY 25338.53055602  .00073542  00000+0  11647-1 0  9997", "line2": "2 31218  98.8431  87.9996 0011488  63.3018 296.9361 14.71780481969620"}}, "geometry": {"type": "Point", "coordinates": [37.76711009616592, 78.84938671636652]}}, {"type": "Feature", "properties": {"norad_id": 31219, "name": "FENGYUN 1C DEB", "group": "fengyun-1c-debris", "lat": -33.401265729027415, "lon": 163.7382296422709, "alt_km": 798.8535428283421, "timestamp": "2025-12-06T07:31:40.517974+00:00", "meta": {"OBJECT_NAME": "FENGYUN 1C DEB", "OBJECT_ID": "1999-025BKZ", "EPOCH": "2025-11-28T23:33:42.264288", "MEAN_MOTION": 14.13677132, "ECCENTRICITY": 0.00786886, "INCLINATION": 99.2839, "RA_OF_ASC_NODE": 342.322, "ARG_OF_PERICENTER": 215.6749, "MEAN_ANOMALY": 143.9149, "EPHEMERIS_TYPE": 0, "CLASSIFICATION_TYPE": "U", "NORAD_CAT_ID": 31219, "ELEMENT_SET_NO": 999, "REV_AT_EPOCH": 95375, "BSTAR": 0.0014850879, "MEAN_MOTION_DOT": 2.841e-05, "MEAN_MOTION_DDOT": 0}, "tle": {"line1": "1 31219U 99025BKZ 25332.98173917  .00002841  00000+0  14851-2 0  9996", "line2": "2 31219  99.2839 342.3220 0078688 215.6749 143.9149 14.13677132953750"}}, "geometry": {"type": "Point", "coordinates": [163.7382296422709, -33.401265729027415]}}, {"type": "Feature", "properties": {"norad_id": 31222, "name": "FENGYUN 1C DEB", "group": "fengyun-1c-debris", "lat": -78.19737459508431, "lon": -176.87288656779882, "alt_km": 698.6120112285453, "timestamp": "2025-12-06T07:31:40.517984+00:00", "meta": {"OBJECT_NAME": "FENGYUN 1C DEB", "OBJECT_ID": "1999-025BLC", "EPOCH": "2025-12-04T15:53:13.949664", "MEAN_MOTION": 14.97569168, "ECCENTRICITY": 0.0170527, "INCLINATION": 98.6136, "RA_OF_ASC_NODE": 47.8098, "ARG_OF_PERICENTER": 95.8565, "MEAN_ANOMALY": 266.2121, "EPHEMERIS_TYPE": 0, "CLASSIFICATION_TYPE": "U", "NORAD_CAT_ID": 31222, "ELEMENT_SET_NO": 999, "REV_AT_EPOCH": 99863, "BSTAR": 0.0014358, "MEAN_MOTION_DOT": 0.00022616, "MEAN_MOTION_DDOT": 0}, "tle": {"line1": "1 31222U 99025BLC 25338.66196701  .00022616  00000+0  14358-2 0  9991", "line2": "2 31222  98.6136  47.8098 0170527  95.8565 266.2121 14.97569168998632"}}, "geometry": {"type": "Point", "coordinates": [-176.87288656779882, -78.19737459508431]}}, {"type": "Feature", "properties": {"norad_id": 31223, "name": "FENGYUN 1C DEB", "group": "fengyun-1c-debris", "lat": -80.65911109981425, "lon": -58.447177191505496, "alt_km": 1125.7216192421665, "timestamp": "2025-12-06T07:31:40.517994+00:00", "meta": {"OBJECT_NAME": "FENGYUN 1C DEB", "OBJECT_ID": "1999-025BLD", "EPOCH": "2025-12-05T04:03:30.279744", "MEAN_MOTION": 13.77185401, "ECCENTRICITY": 0.02414713, "INCLINATION": 99.0055, "RA_OF_ASC_NODE": 225.8719, "ARG_OF_PERICENTER": 60.8193, "MEAN_ANOMALY": 301.6886, "EPHEMERIS_TYPE": 0, "CLASSIFICATION_TYPE": "U", "NORAD_CAT_ID": 31223, "ELEMENT_SET_NO": 999, "REV_AT_EPOCH": 92624, "BSTAR": 0.003835107, "MEAN_MOTION_DOT": 4.672e-05, "MEAN_MOTION_DDOT": 0}, "tle": {"line1": "1 31223U 99025BLD 25339.16910046  .00004672  00000+0  38351-2 0  9995", "line2": "2 31223  99.0055 225.8719 0241471  60.8193 301.6886 13.77185401926243"}}, "geometry": {"type": "Point", "coordinates": [-58.447177191505496, -80.65911109981425]}}, {"type": "Feature", "properties": {"norad_id": 31224, "name": "FENGYUN 1C DEB", "group": "fengyun-1c-debris", "lat": 10.344409055694811, "lon": -29.077455505628876, "alt_km": 908.6879853469945, "timestamp": "2025-12-06T07:31:40.518005+00:00", "meta": {"OBJECT_NAME": "FENGYUN 1C DEB", "OBJECT_ID": "1999-025BLE", "EPOCH": "2025-12-03T18:07:18.672672", "MEAN_MOTION": 14.28870959, "ECCENTRICITY": 0.01575493, "INCLINATION": 98.3692, "RA_OF_ASC_NODE": 330.0057, "ARG_OF_PERICENTER": 189.4604, "MEAN_ANOMALY": 347.708, "EPHEMERIS_TYPE": 0, "CLASSIFICATION_TYPE": "U", "NORAD_CAT_ID": 31224, "ELEMENT_SET_NO": 999, "REV_AT_EPOCH": 69122, "BSTAR": 0.00043720692, "MEAN_MOTION_DOT": 1.217e-05, "MEAN_MOTION_DDOT": 0}, "tle": {"line1": "1 31224U 99025BLE 25337.75507723  .00001217  00000+0  43721-3 0  9993", "line2": "2 31224  98.3692 330.0057 0157549 189.4604 347.7080 14.28870959691224"}}, "geometry": {"type": "Point", "coordinates": [-29.077455505628876, 10.344409055694811]}}, {"type": "Feature", "properties": {"norad_id": 31225, "name": "FENGYUN 1C DEB", "group": "fengyun-1c-debris", "lat": -29.504207493448554, "lon": 58.60184014226853, "alt_km": 789.5086192096296, "timestamp": "2025-12-06T07:31:40.518015+00:00", "meta": {"OBJECT_NAME": "FENGYUN 1C DEB", "OBJECT_ID": "1999-025BLF", "EPOCH": "2025-12-05T04:41:23.403264", "MEAN_MOTION": 14.17799327, "ECCENTRICITY": 0.00882728, "INCLINATION": 98.9909, "RA_OF_ASC_NODE": 52.3301, "ARG_OF_PERICENTER": 13.2242, "MEAN_ANOMALY": 13.1258, "EPHEMERIS_TYPE": 0, "CLASSIFICATION_TYPE": "U", "NORAD_CAT_ID": 31225, "ELEMENT_SET_NO": 999, "REV_AT_EPOCH": 95715, "BSTAR": 0.0024028472, "MEAN_MOTION_DOT": 5.051e-05, "MEAN_MOTION_DDOT": 0}, "tle": {"line1": "1 31225U 99025BLF 25339.19540976  .00005051  00000+0  24028-2 0  9999", "line2": "2 31225  98.9909  52.3301 0088272  13.2242  13.1258 14.17799327957151"}}, "geometry": {"type": "Point", "coordinates": [58.60184014226853, -29.504207493448554]}}, {"type": "Feature", "properties": {"norad_id": 31226, "name": "FENGYUN 1C DEB", "group": "fengyun-1c-debris", "lat": -67.8152152067553, "lon": 1.5326144297951718, "alt_km": 786.5153183253506, "timestamp": "2025-12-06T07:31:40.518025+00:00", "meta": {"OBJECT_NAME": "FENGYUN 1C DEB", "OBJECT_ID": "1999-025BLG", "EPOCH": "2025-12-03T17:34:33.337056", "MEAN_MOTION": 14.26664209, "ECCENTRICITY": 0.01263169, "INCLINATION": 98.3498, "RA_OF_ASC_NODE": 337.9593, "ARG_OF_PERICENTER": 222.6449, "MEAN_ANOMALY": 136.4874, "EPHEMERIS_TYPE": 0, "CLASSIFICATION_TYPE": "U", "NORAD_CAT_ID": 31226, "ELEMENT_SET_NO": 999, "REV_AT_EPOCH": 61925, "BSTAR": 0.00052832093, "MEAN_MOTION_DOT": 1.347e-05, "MEAN_MOTION_DDOT": 0}, "tle": {"line1": "1 31226U 99025BLG 25337.73233029  .00001347  00000+0  52832-3 0  9995", "line2": "2 31226  98.3498 337.9593 0126316 222.6449 136.4874 14.26664209619250"}}, "geometry": {"type": "Point", "coordinates": [1.5326144297951718, -67.8152152067553]}}]}